[{"OBJECT_NAME":"TRANSPORTER-10 OBJECT AG","OBJECT_ID":"2024-043AG","EPOCH":"2026-03-09T22:12:45.387648","MEAN_MOTION":15.30759727,"ECCENTRICITY":0.00093005,"INCLINATION":97.5471,"RA_OF_ASC_NODE":205.7101,"ARG_OF_PERICENTER":226.5958,"MEAN_ANOMALY":133.4509,"EPHEMERIS_TYPE":0,"CLASSIFICATION_TYPE":"U","NORAD_CAT_ID":59128,"ELEMENT_SET_NO":999,"REV_AT_EPOCH":11192,"BSTAR":0.00032170115,"MEAN_MOTION_DOT":9.498e-5,"MEAN_MOTION_DDOT":0},{"OBJECT_NAME":"STARLINK-36086","OBJECT_ID":"2025-288X","EPOCH":"2026-03-09T05:27:11.490048","MEAN_MOTION":15.27578563,"ECCENTRICITY":0.00015551,"INCLINATION":43.0008,"RA_OF_ASC_NODE":26.3238,"ARG_OF_PERICENTER":251.64,"MEAN_ANOMALY":108.4283,"EPHEMERIS_TYPE":0,"CLASSIFICATION_TYPE":"U","NORAD_CAT_ID":66980,"ELEMENT_SET_NO":999,"REV_AT_EPOCH":1521,"BSTAR":0.00059201614,"MEAN_MOTION_DOT":0.00016064,"MEAN_MOTION_DDOT":0}]
